"","name","id.x","spkid","full_name","pdes","prefix","neo","pha","H","G","M1","M2","K1","K2","PC","diameter","extent","albedo","rot_per","GM","BV","UB","IR","spec_B","spec_T","H_sigma","diameter_sigma","orbit_id","epoch","epoch_mjd","epoch_cal","equinox","e","a","q","i","om","w","ma","ad","n","tp","tp_cal","per","per_y","moid","moid_ld","moid_jup","t_jup","sigma_e","sigma_a","sigma_q","sigma_i","sigma_om","sigma_w","sigma_ma","sigma_ad","sigma_n","sigma_tp","sigma_per","class","producer","data_arc","first_obs","last_obs","n_obs_used","n_del_obs_used","n_dop_obs_used","condition_code","rms","two_body","A1","A2","A3","DT","id.y","nametype","recclass","mass..g.","fall","year","reclat","reclong","GeoLocation"
"172","Skiff","dK05K010",1000568,"     C/2005 K1 (Skiff)","2005 K1","C","","",NA,NA,6.6,11.5,13,5,0.03,"","",NA,NA,NA,NA,NA,NA,"","",NA,NA,"JPL 41",2453602.5,53602,20050820,"J2000",1.00329091744627,-1122.15332556488,3.69291395648798,77.7475904106893,106.304989354584,134.938620320201,-0.00244347499897353,NA,2.62195825341729e-05,2453695.69274995,20051121.19275,NA,NA,2.91051,1132.6831767,NA,NA,6.9154e-06,2.3573,2.8351e-06,1.8006e-05,3.4541e-05,0.0001084,7.7003e-06,NA,8.2619e-08,0.00063132,NA,"HYP","Otto Matic",812,"2005-05-16","2007-08-06",615,NA,NA,"",0.67553,NA,NA,NA,NA,NA,23622,"Valid","H4","3540","Found",1966,49.25,-111.86667,"(49.250000, -111.866670)"
"173","Skiff","dK05S020",1001666,"     P/2005 S2 (Skiff)","2005 S2","P","","",NA,NA,7.9,12.1,10,5,0.03,"","",NA,NA,NA,NA,NA,NA,"","",NA,NA,"JPL 9",2453618.5,53618,20050905,"J2000",0.196675930513124,7.96464712011397,6.39819273655688,3.14103894092566,161.27206296106,229.918273369171,346.910228816208,9.53110150367106,0.0438484519787181,2453917.02299438,20060630.5229944,8210.09599551488,22.4780177837505,5.40425,2103.1719725,NA,3.076,0.00047182,0.0025219,0.0017705,0.00023534,0.0022396,0.175,0.10337,0.0030179,2.0826e-05,2.4941,3.8994,"CTc","Otto Matic",427,"2004-09-07","2005-11-08",90,NA,NA,"5",0.6981,NA,NA,NA,NA,NA,23622,"Valid","H4","3540","Found",1966,49.25,-111.86667,"(49.250000, -111.866670)"
"174","Skiff","a0002554",2002554,"  2554 Skiff (1980 OB)","2554","","N","N",12.7,NA,NA,NA,NA,NA,NA,"","",NA,25.6,NA,NA,NA,NA,"","",NA,NA,"JPL 19",2457400.5,57400,20160113,"J2000",0.145550411574884,2.2631314935265,1.93373177319563,4.86179867271624,296.42547843041,333.800210156146,185.685999931768,2.59253121385736,0.289493882977863,2458002.63362118,20170906.1336212,1243.54959178025,3.40465322869335,0.917445,357.04207065,2.50082,3.599,5.709e-08,1.0419e-08,1.2878e-07,5.9203e-06,4.8154e-05,5.1964e-05,1.9587e-05,1.1936e-08,1.9992e-09,6.7166e-05,8.5877e-06,"MBA","Otto Matic",22814,"1953-09-16","2016-03-03",1422,NA,NA,"0",0.50717,NA,NA,NA,NA,NA,23622,"Valid","H4","3540","Found",1966,49.25,-111.86667,"(49.250000, -111.866670)"
"175","Skiff","c00305_0",1000518,"  305P/Skiff","305P","P","","",NA,NA,14.2,18.7,17,5,0.03,"","",NA,NA,NA,NA,NA,NA,"","",NA,NA,"JPL 38",2455706.5,55706,20110525,"J2000",0.696120110381919,4.62048745846361,1.40407321885965,11.5197915829129,242.022006162038,144.894196580963,233.558469138558,7.83690169806757,0.0992367151648553,2456980.64063083,20141119.1406308,3627.68960461817,9.9320728394748,0.428513,166.76440421,NA,2.452,9.6307e-08,3.3724e-08,4.4193e-07,1.3794e-05,7.4701e-05,0.00010046,1.0137e-05,5.72e-08,1.0865e-09,0.00010805,3.9716e-05,"JFc","Otto Matic",3805,"2004-10-07","2015-03-09",548,NA,NA,"0",0.77912,NA,NA,NA,NA,NA,23622,"Valid","H4","3540","Found",1966,49.25,-111.86667,"(49.250000, -111.866670)"
"176","Skiff","dK01S010",1000358,"     C/2001 S1 (Skiff)","2001 S1","C","","",NA,NA,5.9,14,17,5,0.03,"","",NA,NA,NA,NA,NA,NA,"","",NA,NA,"JPL 12",2452186.5,52186,20011004,"J2000",0.929722389588056,53.3468168179864,3.7490868090518,139.132531332046,330.121979489232,285.160963063061,0.312890597690154,102.944546826921,0.00252953858456887,2452062.80526785,20010602.3052678,142318.445820963,389.646668914341,3.03178,1179.8778226,NA,-1.686,0.00049476,0.37903,0.000259,0.00091446,0.0025177,0.010057,0.0034857,0.73141,2.6958e-05,0.066685,1516.7,"COM","Otto Matic",85,"2001-08-22","2001-11-15",41,NA,NA,"5",0.92633,NA,NA,NA,NA,NA,23622,"Valid","H4","3540","Found",1966,49.25,-111.86667,"(49.250000, -111.866670)"
"177","Skiff","dK07B020",1002440,"     C/2007 B2 (Skiff)","2007 B2","C","","",NA,NA,8.1,11.1,9,5,0.03,"","",NA,NA,NA,NA,NA,NA,"","",NA,NA,"JPL 81",2454531.5,54531,20080306,"J2000",0.995964800171043,737.241590393807,2.9749171394572,27.4952676275948,14.8688578074836,205.997218194354,359.991736068108,1471.50826364816,4.92367448362257e-05,2454699.34074414,20080820.8407441,7311612.52023167,20018.1040937212,1.99486,776.3396662,NA,1.902,2.3536e-06,0.43005,5.9331e-07,1.3804e-05,1.6032e-05,3.6502e-05,7.2395e-06,0.85836,4.3081e-08,0.00020343,6397.5,"COM","Otto Matic",1264,"2007-01-23","2010-07-10",1526,NA,NA,"",0.53891,NA,NA,NA,NA,NA,23622,"Valid","H4","3540","Found",1966,49.25,-111.86667,"(49.250000, -111.866670)"
"178","Skiff","dK07H020",1002453,"     C/2007 H2 (Skiff)","2007 H2","C","","",NA,NA,15.9,19.1,17,5,0.03,"","",NA,NA,NA,NA,NA,NA,"","",NA,NA,"JPL 9",2454214.5,54214,20070424,"J2000",0.971690117521928,49.8220830178607,1.41045731504837,52.1910306303225,203.771827754819,319.302701255117,0.184822165402022,98.2337087206731,0.00280266540190924,2454148.55485889,20070217.0548589,128449.154064114,351.674617560886,0.53971,210.0389407,NA,1.001,0.00082317,1.4526,0.00011764,0.013946,0.00053481,0.0052673,0.0081122,2.8642,0.00012257,0.010433,5617.7,"COM","Otto Matic",30,"2007-04-19","2007-05-19",109,NA,NA,"6",0.91679,NA,NA,NA,NA,NA,23622,"Valid","H4","3540","Found",1966,49.25,-111.86667,"(49.250000, -111.866670)"
"179","Snyder","a0015512",2015512," 15512 Snyder (1999 UK1)","15512","","N","N",12.1,NA,NA,NA,NA,NA,NA,"","",NA,2.7385,NA,NA,NA,NA,"","",NA,NA,"JPL 13",2457400.5,57400,20160113,"J2000",0.0230151520000823,3.04115123080026,2.97115867296815,13.7771899029849,127.29662629128,178.09906940102,81.0493929548404,3.11114378863236,0.185843359612239,2456964.38329869,20141102.8832987,1937.1152176281,5.30353242334867,1.95427,760.5432559,2.0584,3.196,6.0615e-08,2.9758e-08,1.8212e-07,6.5986e-06,2.4118e-05,0.00014378,0.00014324,3.0443e-08,2.7278e-09,0.00077057,2.8433e-05,"MBA","Otto Matic",22210,"1955-04-20","2016-02-09",1213,NA,NA,"0",0.48615,NA,NA,NA,NA,NA,23657,"Valid","H3","16900","Found",1983,32.71667,-100.91667,"(32.716670, -100.916670)"
"180","Songyuan","a0023686",2023686," 23686 Songyuan (1997 JZ7)","23686","","N","N",13.8,NA,NA,NA,NA,NA,NA,"","",NA,NA,NA,NA,NA,NA,"","",NA,NA,"JPL 16",2457400.5,57400,20160113,"J2000",0.171018761730982,2.68714855195009,2.22759573400838,12.8450279541463,206.870450253846,60.5146400087267,62.5960482043198,3.14670136989179,0.223751811472593,2457120.74339024,20150408.2433902,1608.92552167827,4.40499800596378,1.2432,483.816144,1.98812,3.317,5.4267e-08,2.1885e-08,1.5066e-07,7.3315e-06,2.7131e-05,3.473e-05,2.2146e-05,2.5628e-08,2.7335e-09,9.8513e-05,1.9656e-05,"MBA","Otto Matic",6789,"1997-05-08","2015-12-09",802,NA,NA,"0",0.46241,NA,NA,NA,NA,NA,23668,"Valid","L6","36900","Fell",1993,45.25,125,"(45.250000, 125.000000)"
"181","Steinbach","a0032810",2032810," 32810 Steinbach (1990 TS10)","32810","","N","N",16.5,NA,NA,NA,NA,NA,NA,"","",NA,NA,NA,NA,NA,NA,"","",NA,NA,"JPL 13",2457400.5,57400,20160113,"J2000",0.178990510210985,2.34318959519824,1.92378089403264,1.82341704092833,314.649710589306,32.8674506370705,37.4129269116898,2.76259829636385,0.274784941069614,2457264.3465166,20150829.8465166,1310.115461927,3.58690064867077,0.915288,356.20263096,2.64083,3.54,8.2348e-08,1.3186e-08,1.9552e-07,7.1392e-06,0.00022557,0.00022635,1.7266e-05,1.5546e-08,2.3195e-09,6.3124e-05,1.1059e-05,"MBA","Otto Matic",13280,"1979-08-22","2015-12-31",489,NA,NA,"0",0.54623,NA,NA,NA,NA,NA,23722,"Valid","Iron, IVA-an","98000","Found",1724,50.5,12.5,"(50.500000, 12.500000)"
"182","Summerfield","a0007344",2007344,"  7344 Summerfield (1992 LU)","7344","","N","N",13,NA,NA,NA,NA,NA,NA,"","",NA,NA,NA,NA,NA,NA,"","",NA,NA,"JPL 17",2457400.5,57400,20160113,"J2000",0.113507988030854,2.58654315412986,2.2929498447496,14.3209860240737,175.03872798689,17.8838867592732,281.724955088909,2.88013646351011,0.236932414919183,2457730.86866204,20161208.368662,1519.42063361315,4.15994697772252,1.29772,505.0336924,2.08294,3.369,6.4183e-08,1.7681e-08,1.6727e-07,7.1627e-06,2.1831e-05,3.5035e-05,3.1709e-05,1.9688e-08,2.4294e-09,0.00013554,1.558e-05,"MBA","Otto Matic",11120,"1985-09-21","2016-03-02",1026,NA,NA,"0",0.45997,NA,NA,NA,NA,NA,23743,"Valid","L5","6200","Found",1979,34.76667,-102.41667,"(34.766670, -102.416670)"
"183","Sutton","a0002532",2002532,"  2532 Sutton (1980 TU5)","2532","","N","N",13,NA,NA,NA,NA,NA,NA,"","",NA,51.3624,NA,NA,NA,NA,"","",NA,NA,"JPL 19",2457400.5,57400,20160113,"J2000",0.171779326247764,2.37218577189765,1.96469329826654,4.33911672688109,345.157007293451,8.4855050704425,248.007689702189,2.77967824552876,0.269762159022611,2457815.65203876,20170303.1520388,1334.50889221948,3.6536862209979,0.957654,372.69020718,2.6416,3.52,7.0503e-08,1.2243e-08,1.6647e-07,6.6123e-06,6.3582e-05,6.4964e-05,1.6129e-05,1.4346e-08,2.0884e-09,6.1111e-05,1.0331e-05,"MBA","Otto Matic",22944,"1953-04-15","2016-02-08",1287,NA,NA,"0",0.52576,NA,NA,NA,NA,NA,23763,"Valid","H5","7600","Found",1964,40.6,-97.86667,"(40.600000, -97.866670)"
